[
  {
    "OBJECT_NAME": "HUYGENS",
    "OBJECT_ID": "2023-001CN",
    "EPOCH": "2023-03-08T03:01:56.143200",
    "MEAN_MOTION": 15.14454871,
    "ECCENTRICITY": 0.0015979,
    "INCLINATION": 97.4932,
    "RA_OF_ASC_NODE": 128.2754,
    "ARG_OF_PERICENTER": 358.5049,
    "MEAN_ANOMALY": 84.9737,
    "EPHEMERIS_TYPE": 0,
    "CLASSIFICATION_TYPE": "U",
    "NORAD_CAT_ID": 55093,
    "ELEMENT_SET_NO": 999,
    "REV_AT_EPOCH": 976,
    "BSTAR": 0.00042686,
    "MEAN_MOTION_DOT": 7.809e-5,
    "MEAN_MOTION_DDOT": 0
  },
  {
    "OBJECT_NAME": "SPACEBEE-165",
    "OBJECT_ID": "2023-001CP",
    "EPOCH": "2023-03-07T03:51:50.029344",
    "MEAN_MOTION": 15.15914534,
    "ECCENTRICITY": 0.0014632,
    "INCLINATION": 97.4916,
    "RA_OF_ASC_NODE": 127.3779,
    "ARG_OF_PERICENTER": 2.1105,
    "MEAN_ANOMALY": 358.0187,
    "EPHEMERIS_TYPE": 0,
    "CLASSIFICATION_TYPE": "U",
    "NORAD_CAT_ID": 55094,
    "ELEMENT_SET_NO": 999,
    "REV_AT_EPOCH": 962,
    "BSTAR": 0.0015622,
    "MEAN_MOTION_DOT": 0.00030042,
    "MEAN_MOTION_DDOT": 0
  },
  {
    "OBJECT_NAME": "SPACEBEE-162",
    "OBJECT_ID": "2023-001CQ",
    "EPOCH": "2023-03-07T03:53:20.643936",
    "MEAN_MOTION": 15.15865104,
    "ECCENTRICITY": 0.0015735,
    "INCLINATION": 97.4917,
    "RA_OF_ASC_NODE": 127.3791,
    "ARG_OF_PERICENTER": 1.5417,
    "MEAN_ANOMALY": 358.5861,
    "EPHEMERIS_TYPE": 0,
    "CLASSIFICATION_TYPE": "U",
    "NORAD_CAT_ID": 55095,
    "ELEMENT_SET_NO": 999,
    "REV_AT_EPOCH": 962,
    "BSTAR": 0.0016084,
    "MEAN_MOTION_DOT": 0.00030906,
    "MEAN_MOTION_DDOT": 0
  },
  {
    "OBJECT_NAME": "SPACEBEE-161",
    "OBJECT_ID": "2023-001CR",
    "EPOCH": "2023-03-07T21:17:52.390752",
    "MEAN_MOTION": 15.15931276,
    "ECCENTRICITY": 0.0015603,
    "INCLINATION": 97.4912,
    "RA_OF_ASC_NODE": 128.0963,
    "ARG_OF_PERICENTER": 358.9506,
    "MEAN_ANOMALY": 1.1692,
    "EPHEMERIS_TYPE": 0,
    "CLASSIFICATION_TYPE": "U",
    "NORAD_CAT_ID": 55096,
    "ELEMENT_SET_NO": 999,
    "REV_AT_EPOCH": 973,
    "BSTAR": 0.0014947,
    "MEAN_MOTION_DOT": 0.00028761,
    "MEAN_MOTION_DDOT": 0
  },
  {
    "OBJECT_NAME": "SPACEBEE-160",
    "OBJECT_ID": "2023-001CS",
    "EPOCH": "2023-03-07T03:50:23.665632",
    "MEAN_MOTION": 15.15939972,
    "ECCENTRICITY": 0.0015752,
    "INCLINATION": 97.4907,
    "RA_OF_ASC_NODE": 127.3805,
    "ARG_OF_PERICENTER": 1.4785,
    "MEAN_ANOMALY": 358.6491,
    "EPHEMERIS_TYPE": 0,
    "CLASSIFICATION_TYPE": "U",
    "NORAD_CAT_ID": 55097,
    "ELEMENT_SET_NO": 999,
    "REV_AT_EPOCH": 962,
    "BSTAR": 0.0016692,
    "MEAN_MOTION_DOT": 0.00032151,
    "MEAN_MOTION_DDOT": 0
  },
  {
    "OBJECT_NAME": "BDSAT-2",
    "OBJECT_ID": "2023-001CT",
    "EPOCH": "2023-03-07T21:33:09.169056",
    "MEAN_MOTION": 15.15338883,
    "ECCENTRICITY": 0.001618,
    "INCLINATION": 97.497,
    "RA_OF_ASC_NODE": 128.1278,
    "ARG_OF_PERICENTER": 359.4527,
    "MEAN_ANOMALY": 0.6684,
    "EPHEMERIS_TYPE": 0,
    "CLASSIFICATION_TYPE": "U",
    "NORAD_CAT_ID": 55098,
    "ELEMENT_SET_NO": 999,
    "REV_AT_EPOCH": 973,
    "BSTAR": 0.001146,
    "MEAN_MOTION_DOT": 0.00021652,
    "MEAN_MOTION_DDOT": 0
  },
  {
    "OBJECT_NAME": "SPACEBEE-156",
    "OBJECT_ID": "2023-001CU",
    "EPOCH": "2023-03-07T03:50:04.134048",
    "MEAN_MOTION": 15.159459,
    "ECCENTRICITY": 0.0015778,
    "INCLINATION": 97.4912,
    "RA_OF_ASC_NODE": 127.3816,
    "ARG_OF_PERICENTER": 1.5201,
    "MEAN_ANOMALY": 358.6076,
    "EPHEMERIS_TYPE": 0,
    "CLASSIFICATION_TYPE": "U",
    "NORAD_CAT_ID": 55099,
    "ELEMENT_SET_NO": 999,
    "REV_AT_EPOCH": 962,
    "BSTAR": 0.0016194,
    "MEAN_MOTION_DOT": 0.00031191,
    "MEAN_MOTION_DDOT": 0
  },
  {
    "OBJECT_NAME": "SPACEBEE-158",
    "OBJECT_ID": "2023-001CV",
    "EPOCH": "2023-03-06T04:04:36.057792",
    "MEAN_MOTION": 15.15871263,
    "ECCENTRICITY": 0.0016114,
    "INCLINATION": 97.4951,
    "RA_OF_ASC_NODE": 126.4024,
    "ARG_OF_PERICENTER": 3.4005,
    "MEAN_ANOMALY": 356.7334,
    "EPHEMERIS_TYPE": 0,
    "CLASSIFICATION_TYPE": "U",
    "NORAD_CAT_ID": 55100,
    "ELEMENT_SET_NO": 999,
    "REV_AT_EPOCH": 947,
    "BSTAR": 0.0015223,
    "MEAN_MOTION_DOT": 0.00029251,
    "MEAN_MOTION_DDOT": 0
  },
  {
    "OBJECT_NAME": "SPACEBEE-159",
    "OBJECT_ID": "2023-001CW",
    "EPOCH": "2023-03-07T21:06:49.081536",
    "MEAN_MOTION": 15.16203996,
    "ECCENTRICITY": 0.0017116,
    "INCLINATION": 97.4912,
    "RA_OF_ASC_NODE": 128.1059,
    "ARG_OF_PERICENTER": 359.4773,
    "MEAN_ANOMALY": 0.6439,
    "EPHEMERIS_TYPE": 0,
    "CLASSIFICATION_TYPE": "U",
    "NORAD_CAT_ID": 55101,
    "ELEMENT_SET_NO": 999,
    "REV_AT_EPOCH": 973,
    "BSTAR": 0.0015438,
    "MEAN_MOTION_DOT": 0.00029962,
    "MEAN_MOTION_DDOT": 0
  },
  {
    "OBJECT_NAME": "SPACEBEE-157",
    "OBJECT_ID": "2023-001CX",
    "EPOCH": "2023-03-07T10:01:53.788224",
    "MEAN_MOTION": 15.16248279,
    "ECCENTRICITY": 0.0015374,
    "INCLINATION": 97.4909,
    "RA_OF_ASC_NODE": 127.6469,
    "ARG_OF_PERICENTER": 3.0222,
    "MEAN_ANOMALY": 357.1101,
    "EPHEMERIS_TYPE": 0,
    "CLASSIFICATION_TYPE": "U",
    "NORAD_CAT_ID": 55102,
    "ELEMENT_SET_NO": 999,
    "REV_AT_EPOCH": 966,
    "BSTAR": 0.0017798,
    "MEAN_MOTION_DOT": 0.00034593,
    "MEAN_MOTION_DDOT": 0
  },
  {
    "OBJECT_NAME": "KUWAITSAT-1",
    "OBJECT_ID": "2023-001CY",
    "EPOCH": "2023-03-07T02:48:55.832832",
    "MEAN_MOTION": 15.14554943,
    "ECCENTRICITY": 0.001678,
    "INCLINATION": 97.4954,
    "RA_OF_ASC_NODE": 127.314,
    "ARG_OF_PERICENTER": 1.4236,
    "MEAN_ANOMALY": 358.7041,
    "EPHEMERIS_TYPE": 0,
    "CLASSIFICATION_TYPE": "U",
    "NORAD_CAT_ID": 55103,
    "ELEMENT_SET_NO": 999,
    "REV_AT_EPOCH": 961,
    "BSTAR": 0.00061452,
    "MEAN_MOTION_DOT": 0.00011312,
    "MEAN_MOTION_DDOT": 0
  },
  {
    "OBJECT_NAME": "SHARJAHSAT-1",
    "OBJECT_ID": "2023-001CZ",
    "EPOCH": "2023-03-07T23:40:01.592256",
    "MEAN_MOTION": 15.12598065,
    "ECCENTRICITY": 0.0012378,
    "INCLINATION": 97.4928,
    "RA_OF_ASC_NODE": 127.9803,
    "ARG_OF_PERICENTER": 23.0927,
    "MEAN_ANOMALY": 337.0857,
    "EPHEMERIS_TYPE": 0,
    "CLASSIFICATION_TYPE": "U",
    "NORAD_CAT_ID": 55104,
    "ELEMENT_SET_NO": 999,
    "REV_AT_EPOCH": 973,
    "BSTAR": 0.00068828,
    "MEAN_MOTION_DOT": 0.00011983,
    "MEAN_MOTION_DDOT": 0
  },
  {
    "OBJECT_NAME": "FUTURA-SM1",
    "OBJECT_ID": "2023-001DA",
    "EPOCH": "2023-03-07T09:11:30.382656",
    "MEAN_MOTION": 15.29221326,
    "ECCENTRICITY": 0.0010948,
    "INCLINATION": 97.4922,
    "RA_OF_ASC_NODE": 128.0289,
    "ARG_OF_PERICENTER": 326.2935,
    "MEAN_ANOMALY": 34.483,
    "EPHEMERIS_TYPE": 0,
    "CLASSIFICATION_TYPE": "U",
    "NORAD_CAT_ID": 55105,
    "ELEMENT_SET_NO": 999,
    "REV_AT_EPOCH": 968,
    "BSTAR": 0.011082,
    "MEAN_MOTION_DOT": 0.00328291,
    "MEAN_MOTION_DDOT": 0
  },
  {
    "OBJECT_NAME": "FUTURA-SM3",
    "OBJECT_ID": "2023-001DB",
    "EPOCH": "2023-03-07T15:44:24.572544",
    "MEAN_MOTION": 15.40546692,
    "ECCENTRICITY": 0.001105,
    "INCLINATION": 97.5008,
    "RA_OF_ASC_NODE": 128.4914,
    "ARG_OF_PERICENTER": 312.7818,
    "MEAN_ANOMALY": 47.2498,
    "EPHEMERIS_TYPE": 0,
    "CLASSIFICATION_TYPE": "U",
    "NORAD_CAT_ID": 55106,
    "ELEMENT_SET_NO": 999,
    "REV_AT_EPOCH": 972,
    "BSTAR": 0.0010045,
    "MEAN_MOTION_DOT": 0.00040967,
    "MEAN_MOTION_DDOT": 0
  }
]
