HUYGENS                 
1 55093U 23001CN  23067.12634425  .00007809  00000+0  42686-3 0  9995
2 55093  97.4932 128.2754 0015979 358.5049  84.9737 15.14454871  9762
SPACEBEE-165            
1 55094U 23001CP  23066.16099571  .00030042  00000+0  15622-2 0  9990
2 55094  97.4916 127.3779 0014632   2.1105 358.0187 15.15914534  9629
SPACEBEE-162            
1 55095U 23001CQ  23066.16204449  .00030906  00000+0  16084-2 0  9995
2 55095  97.4917 127.3791 0015735   1.5417 358.5861 15.15865104  9621
SPACEBEE-161            
1 55096U 23001CR  23066.88741193  .00028761  00000+0  14947-2 0  9999
2 55096  97.4912 128.0963 0015603 358.9506   1.1692 15.15931276  9737
SPACEBEE-160            
1 55097U 23001CS  23066.15999613  .00032151  00000+0  16692-2 0  9999
2 55097  97.4907 127.3805 0015752   1.4785 358.6491 15.15939972  9629
BDSAT-2                 
1 55098U 23001CT  23066.89802279  .00021652  00000+0  11460-2 0  9994
2 55098  97.4970 128.1278 0016180 359.4527   0.6684 15.15338883  9733
SPACEBEE-156            
1 55099U 23001CU  23066.15977007  .00031191  00000+0  16194-2 0  9994
2 55099  97.4912 127.3816 0015778   1.5201 358.6076 15.15945900  9628
SPACEBEE-158            
1 55100U 23001CV  23065.16986178  .00029251  00000+0  15223-2 0  9992
2 55100  97.4951 126.4024 0016114   3.4005 356.7334 15.15871263  9472
SPACEBEE-159            
1 55101U 23001CW  23066.87973474  .00029962  00000+0  15438-2 0  9994
2 55101  97.4912 128.1059 0017116 359.4773   0.6439 15.16203996  9739
SPACEBEE-157            
1 55102U 23001CX  23066.41798366  .00034593  00000+0  17798-2 0  9997
2 55102  97.4909 127.6469 0015374   3.0222 357.1101 15.16248279  9661
KUWAITSAT-1             
1 55103U 23001CY  23066.11731288  .00011312  00000+0  61452-3 0  9996
2 55103  97.4954 127.3140 0016780   1.4236 358.7041 15.14554943  9615
SHARJAHSAT-1            
1 55104U 23001CZ  23066.98612954  .00011983  00000+0  68828-3 0  9998
2 55104  97.4928 127.9803 0012378  23.0927 337.0857 15.12598065  9734
FUTURA-SM1              
1 55105U 23001DA  23066.38299054  .00328291  00000+0  11082-1 0  9996
2 55105  97.4922 128.0289 0010948 326.2935  34.4830 15.29221326  9681
FUTURA-SM3              
1 55106U 23001DB  23066.65583996  .00040967  00000+0  10045-2 0  9998
2 55106  97.5008 128.4914 0011050 312.7818  47.2498 15.40546692  9728
